{"fetched_at":"2026-07-15T17:46:58.170Z","source":"https://celestrak.org/NORAD/elements/gp.php?GROUP=stations&FORMAT=JSON","constellation":"tiangong","records":[{"OBJECT_NAME":"CSS (TIANHE)","OBJECT_ID":"2021-035A","EPOCH":"2026-07-15T03:37:13.255104","CLASSIFICATION_TYPE":"U","MEAN_MOTION":15.58088411,"ECCENTRICITY":0.0001842,"INCLINATION":41.4681,"RA_OF_ASC_NODE":152.0989,"ARG_OF_PERICENTER":294.2158,"MEAN_ANOMALY":65.8488,"EPHEMERIS_TYPE":0,"NORAD_CAT_ID":48274,"ELEMENT_SET_NO":999,"REV_AT_EPOCH":29753,"BSTAR":0.000019607,"MEAN_MOTION_DOT":0.00001188,"MEAN_MOTION_DDOT":0}]}
